{
  "type": "FeatureCollection",
  "features": [
    {
      "type": "Feature",
      "properties": {
        "norad_id": 44873,
        "name": "CSG-1",
        "group": "resource",
        "lat": -78.31912901529842,
        "lon": -146.7097144036943,
        "alt_km": 630.7828483855992,
        "timestamp": "2025-12-15T22:44:28.581246+00:00",
        "meta_object_name": "CSG-1",
        "meta_object_id": "2019-092A",
        "meta_epoch": "2025-12-15T08:31:32.846592",
        "meta_mean_motion": 14.8216804,
        "meta_eccentricity": 0.00014203,
        "meta_inclination": 97.881,
        "meta_ra_of_asc_node": 170.6401,
        "meta_arg_of_pericenter": 84.0794,
        "meta_mean_anomaly": 276.0581,
        "meta_ephemeris_type": 0,
        "meta_classification_type": "U",
        "meta_norad_cat_id": 44873,
        "meta_element_set_no": 999,
        "meta_rev_at_epoch": 32424,
        "meta_bstar": 8.958018e-05,
        "meta_mean_motion_dot": 6.61e-06,
        "meta_mean_motion_ddot": 0,
        "tle_line1": "1 44873U 19092A   25349.35524128  .00000661  00000+0  89580-4 0  9996",
        "tle_line2": "2 44873  97.8810 170.6401 0001420  84.0794 276.0581 14.82168040324247"
      },
      "geometry": {
        "type": "Point",
        "coordinates": [
          -146.7097144036943,
          -78.31912901529842
        ]
      }
    },
    {
      "type": "Feature",
      "properties": {
        "norad_id": 46277,
        "name": "NEMO-HD",
        "group": "resource",
        "lat": 27.9987301155284,
        "lon": 45.13919282563147,
        "alt_km": 442.7720838840014,
        "timestamp": "2025-12-15T22:44:28.581257+00:00",
        "meta_object_name": "NEMO-HD",
        "meta_object_id": "2020-061F",
        "meta_epoch": "2025-12-15T08:35:15.029376",
        "meta_mean_motion": 15.40386629,
        "meta_eccentricity": 0.00017008,
        "meta_inclination": 97.2215,
        "meta_ra_of_asc_node": 48.4225,
        "meta_arg_of_pericenter": 53.7042,
        "meta_mean_anomaly": 306.4361,
        "meta_ephemeris_type": 0,
        "meta_classification_type": "U",
        "meta_norad_cat_id": 46277,
        "meta_element_set_no": 999,
        "meta_rev_at_epoch": 29364,
        "meta_bstar": 0.00020577377,
        "meta_mean_motion_dot": 8.233e-05,
        "meta_mean_motion_ddot": 0,
        "tle_line1": "1 46277U 20061F   25349.35781284  .00008233  00000+0  20577-3 0  9995",
        "tle_line2": "2 46277  97.2215  48.4225 0001700  53.7042 306.4361 15.40386629293649"
      },
      "geometry": {
        "type": "Point",
        "coordinates": [
          45.13919282563147,
          27.9987301155284
        ]
      }
    },
    {
      "type": "Feature",
      "properties": {
        "norad_id": 46984,
        "name": "SENTINEL-6A",
        "group": "resource",
        "lat": 44.39248808556875,
        "lon": -50.160676016525656,
        "alt_km": 1337.5063230568849,
        "timestamp": "2025-12-15T22:44:28.581268+00:00",
        "meta_object_name": "SENTINEL-6A",
        "meta_object_id": "2020-086A",
        "meta_epoch": "2025-12-15T05:12:00.377856",
        "meta_mean_motion": 12.80930694,
        "meta_eccentricity": 0.0007722,
        "meta_inclination": 66.039,
        "meta_ra_of_asc_node": 157.1633,
        "meta_arg_of_pericenter": 269.2823,
        "meta_mean_anomaly": 90.7307,
        "meta_ephemeris_type": 0,
        "meta_classification_type": "U",
        "meta_norad_cat_id": 46984,
        "meta_element_set_no": 999,
        "meta_rev_at_epoch": 23676,
        "meta_bstar": 0.00012257535,
        "meta_mean_motion_dot": -3.3e-07,
        "meta_mean_motion_ddot": 0,
        "tle_line1": "1 46984U 20086A   25349.21667104 -.00000033  00000+0  12258-3 0  9994",
        "tle_line2": "2 46984  66.0390 157.1633 0007722 269.2823  90.7307 12.80930694236765"
      },
      "geometry": {
        "type": "Point",
        "coordinates": [
          -50.160676016525656,
          44.39248808556875
        ]
      }
    },
    {
      "type": "Feature",
      "properties": {
        "norad_id": 48079,
        "name": "GAOFEN-12 02",
        "group": "resource",
        "lat": 17.798714684017884,
        "lon": 166.52136140432947,
        "alt_km": 626.68506531,
        "timestamp": "2025-12-15T22:44:28.581279+00:00",
        "meta_object_name": "GAOFEN-12 02",
        "meta_object_id": "2021-026A",
        "meta_epoch": "2025-12-15T05:47:38.749344",
        "meta_mean_motion": 14.80677991,
        "meta_eccentricity": 0.00035819,
        "meta_inclination": 97.9852,
        "meta_ra_of_asc_node": 343.2357,
        "meta_arg_of_pericenter": 96.1045,
        "meta_mean_anomaly": 264.0576,
        "meta_ephemeris_type": 0,
        "meta_classification_type": "U",
        "meta_norad_cat_id": 48079,
        "meta_element_set_no": 999,
        "meta_rev_at_epoch": 25454,
        "meta_bstar": 7.7085262e-05,
        "meta_mean_motion_dot": 5.4e-06,
        "meta_mean_motion_ddot": 0,
        "tle_line1": "1 48079U 21026A   25349.24142071  .00000540  00000+0  77085-4 0  9992",
        "tle_line2": "2 48079  97.9852 343.2357 0003581  96.1045 264.0576 14.80677991254541"
      },
      "geometry": {
        "type": "Point",
        "coordinates": [
          166.52136140432947,
          17.798714684017884
        ]
      }
    },
    {
      "type": "Feature",
      "properties": {
        "norad_id": 48268,
        "name": "PLEIADES NEO 3",
        "group": "resource",
        "lat": -59.44790457029185,
        "lon": -131.253823669057,
        "alt_km": 631.9707489556904,
        "timestamp": "2025-12-15T22:44:28.581289+00:00",
        "meta_object_name": "PLEIADES NEO 3",
        "meta_object_id": "2021-034A",
        "meta_epoch": "2025-12-15T05:27:07.814592",
        "meta_mean_motion": 14.81673903,
        "meta_eccentricity": 0.00013201,
        "meta_inclination": 97.8945,
        "meta_ra_of_asc_node": 61.6322,
        "meta_arg_of_pericenter": 93.5672,
        "meta_mean_anomaly": 266.5692,
        "meta_ephemeris_type": 0,
        "meta_classification_type": "U",
        "meta_norad_cat_id": 48268,
        "meta_element_set_no": 999,
        "meta_rev_at_epoch": 25041,
        "meta_bstar": 0.00025143135,
        "meta_mean_motion_dot": 1.927e-05,
        "meta_mean_motion_ddot": 0,
        "tle_line1": "1 48268U 21034A   25349.22717378  .00001927  00000+0  25143-3 0  9994",
        "tle_line2": "2 48268  97.8945  61.6322 0001320  93.5672 266.5692 14.81673903250410"
      },
      "geometry": {
        "type": "Point",
        "coordinates": [
          -131.253823669057,
          -59.44790457029185
        ]
      }
    },
    {
      "type": "Feature",
      "properties": {
        "norad_id": 49070,
        "name": "PLEIADES NEO 4",
        "group": "resource",
        "lat": 59.35756928775741,
        "lon": 48.79192078867701,
        "alt_km": 617.5043272352186,
        "timestamp": "2025-12-15T22:44:28.581299+00:00",
        "meta_object_name": "PLEIADES NEO 4",
        "meta_object_id": "2021-073E",
        "meta_epoch": "2025-12-15T07:52:59.210112",
        "meta_mean_motion": 14.81671544,
        "meta_eccentricity": 0.00013062,
        "meta_inclination": 97.8945,
        "meta_ra_of_asc_node": 61.728,
        "meta_arg_of_pericenter": 89.8966,
        "meta_mean_anomaly": 270.2397,
        "meta_ephemeris_type": 0,
        "meta_classification_type": "U",
        "meta_norad_cat_id": 49070,
        "meta_element_set_no": 999,
        "meta_rev_at_epoch": 23414,
        "meta_bstar": 1.3202251e-05,
        "meta_mean_motion_dot": 5.2e-07,
        "meta_mean_motion_ddot": 0,
        "tle_line1": "1 49070U 21073E   25349.32846308  .00000052  00000+0  13202-4 0  9998",
        "tle_line2": "2 49070  97.8945  61.7280 0001306  89.8966 270.2397 14.81671544234149"
      },
      "geometry": {
        "type": "Point",
        "coordinates": [
          48.79192078867701,
          59.35756928775741
        ]
      }
    },
    {
      "type": "Feature",
      "properties": {
        "norad_id": 49260,
        "name": "LANDSAT 9",
        "group": "resource",
        "lat": 25.84537688121457,
        "lon": -117.9780221471126,
        "alt_km": 701.35367873204,
        "timestamp": "2025-12-15T22:44:28.581311+00:00",
        "meta_object_name": "LANDSAT 9",
        "meta_object_id": "2021-088A",
        "meta_epoch": "2025-12-15T07:12:18.988128",
        "meta_mean_motion": 14.57100581,
        "meta_eccentricity": 0.00011451,
        "meta_inclination": 98.2093,
        "meta_ra_of_asc_node": 57.3742,
        "meta_arg_of_pericenter": 89.4087,
        "meta_mean_anomaly": 270.7242,
        "meta_ephemeris_type": 0,
        "meta_classification_type": "U",
        "meta_norad_cat_id": 49260,
        "meta_element_set_no": 999,
        "meta_rev_at_epoch": 22422,
        "meta_bstar": 0.00011239756,
        "meta_mean_motion_dot": 4.61e-06,
        "meta_mean_motion_ddot": 0,
        "tle_line1": "1 49260U 21088A   25349.30021977  .00000461  00000+0  11240-3 0  9993",
        "tle_line2": "2 49260  98.2093  57.3742 0001145  89.4087 270.7242 14.57100581224227"
      },
      "geometry": {
        "type": "Point",
        "coordinates": [
          -117.9780221471126,
          25.84537688121457
        ]
      }
    }
  ]
}